[{"OBJECT_NAME":"STARLINK-34175","OBJECT_ID":"2025-112Z","EPOCH":"2026-03-09T16:23:07.924704","MEAN_MOTION":15.05642618,"ECCENTRICITY":7.547e-5,"INCLINATION":97.6039,"RA_OF_ASC_NODE":121.4608,"ARG_OF_PERICENTER":102.3314,"MEAN_ANOMALY":257.7998,"EPHEMERIS_TYPE":0,"CLASSIFICATION_TYPE":"U","NORAD_CAT_ID":64169,"ELEMENT_SET_NO":999,"REV_AT_EPOCH":4330,"BSTAR":0.00051192168,"MEAN_MOTION_DOT":7.332e-5,"MEAN_MOTION_DDOT":0},{"OBJECT_NAME":"COSMOS 397 DEB","OBJECT_ID":"1971-015L","EPOCH":"2026-03-09T22:11:19.295232","MEAN_MOTION":13.48158936,"ECCENTRICITY":0.07121473,"INCLINATION":65.7094,"RA_OF_ASC_NODE":322.2428,"ARG_OF_PERICENTER":175.4627,"MEAN_ANOMALY":185.3369,"EPHEMERIS_TYPE":0,"CLASSIFICATION_TYPE":"U","NORAD_CAT_ID":5017,"ELEMENT_SET_NO":999,"REV_AT_EPOCH":62618,"BSTAR":0.00068402062,"MEAN_MOTION_DOT":2.026e-5,"MEAN_MOTION_DDOT":0}]
